{
  "type": "FeatureCollection",
  "features": [
    {
      "type": "Feature",
      "properties": {
        "norad_id": 33860,
        "name": "IRIDIUM 33 DEB",
        "group": "iridium-33-debris",
        "lat": -14.375938419432595,
        "lon": -147.37249689863316,
        "alt_km": 680.866065940214,
        "timestamp": "2025-12-02T15:49:07.578289+00:00",
        "meta_object_name": "IRIDIUM 33 DEB",
        "meta_object_id": "1997-051AD",
        "meta_epoch": "2025-12-02T05:26:21.340032",
        "meta_mean_motion": 14.67138224,
        "meta_eccentricity": 0.00087317,
        "meta_inclination": 86.3852,
        "meta_ra_of_asc_node": 31.8903,
        "meta_arg_of_pericenter": 32.0851,
        "meta_mean_anomaly": 39.427,
        "meta_ephemeris_type": 0,
        "meta_classification_type": "U",
        "meta_norad_cat_id": 33860,
        "meta_element_set_no": 999,
        "meta_rev_at_epoch": 88568,
        "meta_bstar": 0.0015121125,
        "meta_mean_motion_dot": 8.527e-05,
        "meta_mean_motion_ddot": 0,
        "tle_line1": "1 33860U 97051AD  25336.22663588  .00008527  00000+0  15121-2 0  9994",
        "tle_line2": "2 33860  86.3852  31.8903 0008731  32.0851  39.4270 14.67138224885684"
      },
      "geometry": {
        "type": "Point",
        "coordinates": [
          -147.37249689863316,
          -14.375938419432595
        ]
      }
    },
    {
      "type": "Feature",
      "properties": {
        "norad_id": 33862,
        "name": "IRIDIUM 33 DEB",
        "group": "iridium-33-debris",
        "lat": 25.235460641467416,
        "lon": -139.7212900948948,
        "alt_km": 639.3391596255078,
        "timestamp": "2025-12-02T15:49:07.578300+00:00",
        "meta_object_name": "IRIDIUM 33 DEB",
        "meta_object_id": "1997-051AF",
        "meta_epoch": "2025-12-02T03:56:54.079584",
        "meta_mean_motion": 14.6918775,
        "meta_eccentricity": 0.00540433,
        "meta_inclination": 86.4106,
        "meta_ra_of_asc_node": 42.1919,
        "meta_arg_of_pericenter": 104.4608,
        "meta_mean_anomaly": 315.3783,
        "meta_ephemeris_type": 0,
        "meta_classification_type": "U",
        "meta_norad_cat_id": 33862,
        "meta_element_set_no": 999,
        "meta_rev_at_epoch": 88668,
        "meta_bstar": 0.0016055683,
        "meta_mean_motion_dot": 9.692e-05,
        "meta_mean_motion_ddot": 0,
        "tle_line1": "1 33862U 97051AF  25336.16451481  .00009692  00000+0  16056-2 0  9998",
        "tle_line2": "2 33862  86.4106  42.1919 0054043 104.4608 315.3783 14.69187750886688"
      },
      "geometry": {
        "type": "Point",
        "coordinates": [
          -139.7212900948948,
          25.235460641467416
        ]
      }
    },
    {
      "type": "Feature",
      "properties": {
        "norad_id": 33866,
        "name": "IRIDIUM 33 DEB",
        "group": "iridium-33-debris",
        "lat": 17.097367025772336,
        "lon": 98.44074590180459,
        "alt_km": 889.7789004343549,
        "timestamp": "2025-12-02T15:49:07.578312+00:00",
        "meta_object_name": "IRIDIUM 33 DEB",
        "meta_object_id": "1997-051AK",
        "meta_epoch": "2025-12-02T07:36:26.418816",
        "meta_mean_motion": 14.25213799,
        "meta_eccentricity": 0.01135469,
        "meta_inclination": 86.2996,
        "meta_ra_of_asc_node": 97.4449,
        "meta_arg_of_pericenter": 194.6577,
        "meta_mean_anomaly": 228.3118,
        "meta_ephemeris_type": 0,
        "meta_classification_type": "U",
        "meta_norad_cat_id": 33866,
        "meta_element_set_no": 999,
        "meta_rev_at_epoch": 86662,
        "meta_bstar": 0.00084489289,
        "meta_mean_motion_dot": 2.142e-05,
        "meta_mean_motion_ddot": 0,
        "tle_line1": "1 33866U 97051AK  25336.31697244  .00002142  00000+0  84489-3 0  9997",
        "tle_line2": "2 33866  86.2996  97.4449 0113546 194.6577 228.3118 14.25213799866620"
      },
      "geometry": {
        "type": "Point",
        "coordinates": [
          98.44074590180459,
          17.097367025772336
        ]
      }
    },
    {
      "type": "Feature",
      "properties": {
        "norad_id": 33867,
        "name": "IRIDIUM 33 DEB",
        "group": "iridium-33-debris",
        "lat": -38.69872790426902,
        "lon": 178.20339965585657,
        "alt_km": 418.33536271648336,
        "timestamp": "2025-12-02T15:49:07.578323+00:00",
        "meta_object_name": "IRIDIUM 33 DEB",
        "meta_object_id": "1997-051AL",
        "meta_epoch": "2025-12-02T00:57:38.470176",
        "meta_mean_motion": 15.52551436,
        "meta_eccentricity": 0.00117532,
        "meta_inclination": 86.3629,
        "meta_ra_of_asc_node": 355.5967,
        "meta_arg_of_pericenter": 101.8942,
        "meta_mean_anomaly": 258.3637,
        "meta_ephemeris_type": 0,
        "meta_classification_type": "U",
        "meta_norad_cat_id": 33867,
        "meta_element_set_no": 999,
        "meta_rev_at_epoch": 89344,
        "meta_bstar": 0.0064552993,
        "meta_mean_motion_dot": 0.00417107,
        "meta_mean_motion_ddot": 0,
        "tle_line1": "1 33867U 97051AL  25336.04002859  .00417107  00000+0  64553-2 0  9990",
        "tle_line2": "2 33867  86.3629 355.5967 0011753 101.8942 258.3637 15.52551436893444"
      },
      "geometry": {
        "type": "Point",
        "coordinates": [
          178.20339965585657,
          -38.69872790426902
        ]
      }
    },
    {
      "type": "Feature",
      "properties": {
        "norad_id": 33870,
        "name": "IRIDIUM 33 DEB",
        "group": "iridium-33-debris",
        "lat": 86.2703986526663,
        "lon": 166.08571342969088,
        "alt_km": 739.5037390724874,
        "timestamp": "2025-12-02T15:49:07.578334+00:00",
        "meta_object_name": "IRIDIUM 33 DEB",
        "meta_object_id": "1997-051AP",
        "meta_epoch": "2025-12-02T07:23:19.616352",
        "meta_mean_motion": 14.45752988,
        "meta_eccentricity": 0.00203755,
        "meta_inclination": 86.3756,
        "meta_ra_of_asc_node": 62.7314,
        "meta_arg_of_pericenter": 212.9656,
        "meta_mean_anomaly": 211.117,
        "meta_ephemeris_type": 0,
        "meta_classification_type": "U",
        "meta_norad_cat_id": 33870,
        "meta_element_set_no": 999,
        "meta_rev_at_epoch": 87986,
        "meta_bstar": 0.0011193325,
        "meta_mean_motion_dot": 3.994e-05,
        "meta_mean_motion_ddot": 0,
        "tle_line1": "1 33870U 97051AP  25336.30786593  .00003994  00000+0  11193-2 0  9994",
        "tle_line2": "2 33870  86.3756  62.7314 0020375 212.9656 211.1170 14.45752988879863"
      },
      "geometry": {
        "type": "Point",
        "coordinates": [
          166.08571342969088,
          86.2703986526663
        ]
      }
    },
    {
      "type": "Feature",
      "properties": {
        "norad_id": 33881,
        "name": "IRIDIUM 33 DEB",
        "group": "iridium-33-debris",
        "lat": -64.63720495440703,
        "lon": 103.46097757979717,
        "alt_km": 710.7652839741404,
        "timestamp": "2025-12-02T15:49:07.578345+00:00",
        "meta_object_name": "IRIDIUM 33 DEB",
        "meta_object_id": "1997-051BA",
        "meta_epoch": "2025-12-01T19:20:33.046656",
        "meta_mean_motion": 14.56252651,
        "meta_eccentricity": 0.00610429,
        "meta_inclination": 86.3869,
        "meta_ra_of_asc_node": 111.4914,
        "meta_arg_of_pericenter": 210.0929,
        "meta_mean_anomaly": 294.4565,
        "meta_ephemeris_type": 0,
        "meta_classification_type": "U",
        "meta_norad_cat_id": 33881,
        "meta_element_set_no": 999,
        "meta_rev_at_epoch": 87341,
        "meta_bstar": 0.0018925241,
        "meta_mean_motion_dot": 8.609e-05,
        "meta_mean_motion_ddot": 0,
        "tle_line1": "1 33881U 97051BA  25335.80593804  .00008609  00000+0  18925-2 0  9999",
        "tle_line2": "2 33881  86.3869 111.4914 0061042 210.0929 294.4565 14.56252651873417"
      },
      "geometry": {
        "type": "Point",
        "coordinates": [
          103.46097757979717,
          -64.63720495440703
        ]
      }
    },
    {
      "type": "Feature",
      "properties": {
        "norad_id": 33884,
        "name": "IRIDIUM 33 DEB",
        "group": "iridium-33-debris",
        "lat": -25.614310081387103,
        "lon": -163.8878494842421,
        "alt_km": 651.0828362243192,
        "timestamp": "2025-12-02T15:49:07.578356+00:00",
        "meta_object_name": "IRIDIUM 33 DEB",
        "meta_object_id": "1997-051BD",
        "meta_epoch": "2025-12-02T03:46:50.889216",
        "meta_mean_motion": 14.77106911,
        "meta_eccentricity": 0.00108058,
        "meta_inclination": 86.3703,
        "meta_ra_of_asc_node": 14.5944,
        "meta_arg_of_pericenter": 2.5334,
        "meta_mean_anomaly": 57.6114,
        "meta_ephemeris_type": 0,
        "meta_classification_type": "U",
        "meta_norad_cat_id": 33884,
        "meta_element_set_no": 999,
        "meta_rev_at_epoch": 88691,
        "meta_bstar": 0.0014763479,
        "meta_mean_motion_dot": 0.00010468,
        "meta_mean_motion_ddot": 0,
        "tle_line1": "1 33884U 97051BD  25336.15753344  .00010468  00000+0  14763-2 0  9990",
        "tle_line2": "2 33884  86.3703  14.5944 0010805   2.5334  57.6114 14.77106911886916"
      },
      "geometry": {
        "type": "Point",
        "coordinates": [
          -163.8878494842421,
          -25.614310081387103
        ]
      }
    }
  ]
}